STARLINK-1765           
1 46344U 20062V   25039.49283835  .00020152  00000+0  13690-2 0  9992
2 46344  53.0552 326.2354 0001111  71.8811 288.2299 15.06370691245333
STARLINK-1767           
1 46345U 20062W   25039.56102509  .00025715  00000+0  17395-2 0  9995
2 46345  53.0556 345.9290 0001300  78.3128 281.8007 15.06388284244903
STARLINK-1547           
1 46347U 20062Y   25039.12101144  .00016026  00000+0  10917-2 0  9991
2 46347  53.0542 302.9058 0001530 100.3569 259.7592 15.06422123245641
STARLINK-1553           
1 46348U 20062Z   25039.19197272  .00012564  00000+0  74349-3 0  9999
2 46348  53.0534 324.3856 0000769 111.6336 248.4737 15.11790698245172
STARLINK-1575           
1 46349U 20062AA  25039.02886254  .00012176  00000+0  83461-3 0  9991
2 46349  53.0546 303.3180 0001643  93.7819 266.3358 15.06414128245455
STARLINK-1646           
1 46351U 20062AC  25039.52970099  .00027324  00000+0  18467-2 0  9994
2 46351  53.0549 326.0680 0001321  73.9204 286.1930 15.06389171245195
STARLINK-1653           
1 46352U 20062AD  25039.51127130  .00026329  00000+0  17805-2 0  9993
2 46352  53.0552 326.1535 0000933  87.2897 272.8199 15.06386798245184
STARLINK-1656           
1 46353U 20062AE  25039.57576588  .00027760  00000+0  18739-2 0  9992
2 46353  53.0565 345.8627 0001317  92.9642 267.1498 15.06425762245080
STARLINK-1657           
1 46354U 20062AF  25039.56471297  .00024786  00000+0  16776-2 0  9997
2 46354  53.0564 345.9124 0002109  80.5065 279.6162 15.06387093244905
STARLINK-1661           
1 46355U 20062AG  25039.53891058  .00006798  00000+0  47478-3 0  9993
2 46355  53.0565 346.0288 0001349  92.3901 267.7242 15.06402860244902
STARLINK-1665           
1 46356U 20062AH  25039.55365725  .00004708  00000+0  33483-3 0  9993
2 46356  53.0570 346.0030 0001516 103.3196 256.7962 15.06391595244908
STARLINK-1666           
1 46357U 20062AJ  25039.48177997  .00012128  00000+0  83174-3 0  9995
2 46357  53.0565 326.2866 0001291  91.9769 268.1368 15.06396078245176
STARLINK-1707           
1 46359U 20062AL  25039.10981815  .00018504  00000+0  12538-2 0  9997
2 46359  53.0544 302.9544 0001594  87.2275 272.8896 15.06520335245460
STARLINK-1713           
1 46360U 20062AM  25039.86189072  .00012511  00000+0  85700-3 0  9991
2 46360  53.0560 299.5810 0001499 102.8377 257.2780 15.06413526245763
STARLINK-1722           
1 46361U 20062AN  25039.85630303  .01057275  60028-3  16389-2 0  9992
2 46361  53.0342 265.5603 0009963 180.2444 179.8584 16.03576653246114
STARLINK-1726           
1 46362U 20062AP  25039.41219149  .00004499  00000+0  32068-3 0  9998
2 46362  53.0558 301.5999 0001703 100.6264 259.4917 15.06410654245511
STARLINK-1739           
1 46363U 20062AQ  25039.36962066  .00043341  00000+0  94519-3 0  9994
2 46363  53.0418 284.4741 0013764 102.4785 257.7761 15.43738151245759
STARLINK-1763           
1 46364U 20062AR  25039.58334491  .00400660  00000+0  19550-2 0  9996
2 46364  53.0420 253.1184 0011113 161.7475 325.6615 15.80645907246309
STARLINK-1651           
1 46366U 20062AT  25039.10627030  .00017310  00000+0  11772-2 0  9994
2 46366  53.0545 302.9733 0001137  90.7409 269.3710 15.06428387245460
STARLINK-1689           
1 46372U 20062AZ  25039.22324589  .00067183  00000+0  23655-2 0  9993
2 46372  53.0469 332.2754 0008890  85.7751 274.4263 15.28680886245073
STARLINK-1711           
1 46374U 20062BB  25039.91668981  .00593502  15503-3  15516-2 0  9992
2 46374  53.0321 227.7065 0005672 219.1486 105.2972 15.94344616246674
STARLINK-1724           
1 46375U 20062BC  25039.03254742  .00009779  00000+0  67422-3 0  9996
2 46375  53.0540 303.3010 0001285  83.8530 276.2605 15.06415027245456
STARLINK-1742           
1 46376U 20062BD  25039.11221136  .00019528  00000+0  13095-2 0  9996
2 46376  53.0542 302.9304 0001258  93.8941 266.2192 15.06872368245463
STARLINK-1758           
1 46380U 20062BH  25039.88411913  .07709626  12148-4  10579-2 0  9996
2 46380  53.0303 289.9655 0006324 230.7254 228.0177 16.34373832245737
STARLINK-1769           
1 46382U 20062BK  25039.85819655  .00001763  00000+0  13721-3 0  9992
2 46382  53.0554 299.5983 0001379  88.4868 271.6279 15.06397240245736
STARLINK-1770           
1 46383U 20062BL  25039.84485145  .00021178  00000+0  14364-2 0  9990
2 46383  53.0552 344.6549 0001330  95.3951 264.7189 15.06400132245123
STARLINK-1771           
1 46384U 20062BM  25039.58314716  .00008883  00000+0  61459-3 0  9993
2 46384  53.0572 345.8284 0001950  92.6489 267.4723 15.06392672245087
GAOFEN-11 02            
1 46396U 20064A   25039.80724375  .00013094  00000+0  54691-3 0  9999
2 46396  97.4585 161.9975 0009805 268.3707  91.6406 15.23721208246415
JILIN-1 GAOFEN 3B       
1 46454U 20065A   25039.77955134  .00026018  00000+0  74338-3 0  9990
2 46454  97.3067  88.0405 0006880 114.7280 245.4681 15.35957635243656
JILIN-1 GAOFEN 3C       
1 46455U 20065B   25039.81706027  .00030316  00000+0  77972-3 0  9994
2 46455  97.3029  87.4796 0004262 125.2393 234.9252 15.39202879243682
