OBJECT_NAME,OBJECT_ID,EPOCH,MEAN_MOTION,ECCENTRICITY,INCLINATION,RA_OF_ASC_NODE,ARG_OF_PERICENTER,MEAN_ANOMALY,EPHEMERIS_TYPE,CLASSIFICATION_TYPE,NORAD_CAT_ID,ELEMENT_SET_NO,REV_AT_EPOCH,BSTAR,MEAN_MOTION_DOT,MEAN_MOTION_DDOT
STARLINK-1765,2020-062V,2025-02-08T11:49:41.233440,15.06370691,.0001111,53.0552,326.2354,71.8811,288.2299,0,U,46344,999,24533,.1369E-2,.20152E-3,0
STARLINK-1767,2020-062W,2025-02-08T13:27:52.567776,15.06388284,.00013,53.0556,345.9290,78.3128,281.8007,0,U,46345,999,24490,.17395E-2,.25715E-3,0
STARLINK-1547,2020-062Y,2025-02-08T02:54:15.388416,15.06422123,.000153,53.0542,302.9058,100.3569,259.7592,0,U,46347,999,24564,.10917E-2,.16026E-3,0
STARLINK-1553,2020-062Z,2025-02-08T04:36:26.443008,15.11790698,.0000769,53.0534,324.3856,111.6336,248.4737,0,U,46348,999,24517,.74349E-3,.12564E-3,0
STARLINK-1575,2020-062AA,2025-02-08T00:41:33.723456,15.06414128,.0001643,53.0546,303.3180,93.7819,266.3358,0,U,46349,999,24545,.83461E-3,.12176E-3,0
STARLINK-1646,2020-062AC,2025-02-08T12:42:46.165536,15.06389171,.0001321,53.0549,326.0680,73.9204,286.1930,0,U,46351,999,24519,.18467E-2,.27324E-3,0
STARLINK-1653,2020-062AD,2025-02-08T12:16:13.840320,15.06386798,.0000933,53.0552,326.1535,87.2897,272.8199,0,U,46352,999,24518,.17805E-2,.26329E-3,0
STARLINK-1656,2020-062AE,2025-02-08T13:49:06.172032,15.06425762,.0001317,53.0565,345.8627,92.9642,267.1498,0,U,46353,999,24508,.18739E-2,.2776E-3,0
STARLINK-1657,2020-062AF,2025-02-08T13:33:11.200608,15.06387093,.0002109,53.0564,345.9124,80.5065,279.6162,0,U,46354,999,24490,.16776E-2,.24786E-3,0
STARLINK-1661,2020-062AG,2025-02-08T12:56:01.874112,15.06402860,.0001349,53.0565,346.0288,92.3901,267.7242,0,U,46355,999,24490,.47478E-3,.6798E-4,0
STARLINK-1665,2020-062AH,2025-02-08T13:17:15.986400,15.06391595,.0001516,53.0570,346.0030,103.3196,256.7962,0,U,46356,999,24490,.33483E-3,.4708E-4,0
STARLINK-1666,2020-062AJ,2025-02-08T11:33:45.789408,15.06396078,.0001291,53.0565,326.2866,91.9769,268.1368,0,U,46357,999,24517,.83174E-3,.12128E-3,0
STARLINK-1707,2020-062AL,2025-02-08T02:38:08.288160,15.06520335,.0001594,53.0544,302.9544,87.2275,272.8896,0,U,46359,999,24546,.12538E-2,.18504E-3,0
STARLINK-1713,2020-062AM,2025-02-08T20:41:07.358208,15.06413526,.0001499,53.0560,299.5810,102.8377,257.2780,0,U,46360,999,24576,.857E-3,.12511E-3,0
STARLINK-1722,2020-062AN,2025-02-08T20:33:04.581792,16.03576653,.0009963,53.0342,265.5603,180.2444,179.8584,0,U,46361,999,24611,.16389E-2,.1057275E-1,.60028E-3
STARLINK-1726,2020-062AP,2025-02-08T09:53:33.344736,15.06410654,.0001703,53.0558,301.5999,100.6264,259.4917,0,U,46362,999,24551,.32068E-3,.4499E-4,0
STARLINK-1739,2020-062AQ,2025-02-08T08:52:15.225024,15.43738151,.0013764,53.0418,284.4741,102.4785,257.7761,0,U,46363,999,24575,.94519E-3,.43341E-3,0
STARLINK-1763,2020-062AR,2025-02-08T14:00:01.000224,15.80645907,.0011113,53.0420,253.1184,161.7475,325.6615,0,U,46364,999,24630,.1955E-2,.40066E-2,0
STARLINK-1651,2020-062AT,2025-02-08T02:33:01.753920,15.06428387,.0001137,53.0545,302.9733,90.7409,269.3710,0,U,46366,999,24546,.11772E-2,.1731E-3,0
STARLINK-1689,2020-062AZ,2025-02-08T05:21:28.444896,15.28680886,.000889,53.0469,332.2754,85.7751,274.4263,0,U,46372,999,24507,.23655E-2,.67183E-3,0
STARLINK-1711,2020-062BB,2025-02-08T22:00:01.999584,15.94344616,.0005672,53.0321,227.7065,219.1486,105.2972,0,U,46374,999,24667,.15516E-2,.593502E-2,.15503E-3
STARLINK-1724,2020-062BC,2025-02-08T00:46:52.097088,15.06415027,.0001285,53.0540,303.3010,83.8530,276.2605,0,U,46375,999,24545,.67422E-3,.9779E-4,0
STARLINK-1742,2020-062BD,2025-02-08T02:41:35.061504,15.06872368,.0001258,53.0542,302.9304,93.8941,266.2192,0,U,46376,999,24546,.13095E-2,.19528E-3,0
STARLINK-1758,2020-062BH,2025-02-08T21:13:07.892832,16.34373832,.0006324,53.0303,289.9655,230.7254,228.0177,0,U,46380,999,24573,.10579E-2,.7709626E-1,.12148E-4
STARLINK-1769,2020-062BK,2025-02-08T20:35:48.181920,15.06397240,.0001379,53.0554,299.5983,88.4868,271.6279,0,U,46382,999,24573,.13721E-3,.1763E-4,0
STARLINK-1770,2020-062BL,2025-02-08T20:16:35.165280,15.06400132,.000133,53.0552,344.6549,95.3951,264.7189,0,U,46383,999,24512,.14364E-2,.21178E-3,0
STARLINK-1771,2020-062BM,2025-02-08T13:59:43.914624,15.06392672,.000195,53.0572,345.8284,92.6489,267.4723,0,U,46384,999,24508,.61459E-3,.8883E-4,0
GAOFEN-11 02,2020-064A,2025-02-08T19:22:25.860000,15.23721208,.0009805,97.4585,161.9975,268.3707,91.6406,0,U,46396,999,24641,.54691E-3,.13094E-3,0
JILIN-1 GAOFEN 3B,2020-065A,2025-02-08T18:42:33.235776,15.35957635,.000688,97.3067,88.0405,114.7280,245.4681,0,U,46454,999,24365,.74338E-3,.26018E-3,0
JILIN-1 GAOFEN 3C,2020-065B,2025-02-08T19:36:34.007328,15.39202879,.0004262,97.3029,87.4796,125.2393,234.9252,0,U,46455,999,24368,.77972E-3,.30316E-3,0
